GSAT0222 (GALILEO 26)   
1 43565U 18060B   23347.45056740 -.00000058  00000+0  00000+0 0  9990
2 43565  57.2985   6.5008 0005130 251.9967 108.0017  1.70475565 33584
GSAT0219 (GALILEO 23)   
1 43566U 18060C   23345.91300726 -.00000057  00000+0  00000+0 0  9995
2 43566  57.2975   6.5444 0004906 279.7720  80.2309  1.70475891 33535
GSAT0220 (GALILEO 24)   
1 43567U 18060D   23346.13348755 -.00000057  00000+0  00000+0 0  9995
2 43567  57.2979   6.5391 0005123 277.7450  82.2547  1.70475736 33513
BEIDOU-3 M13            
1 43622U 18072A   23345.80783701 -.00000013  00000+0  00000+0 0  9999
2 43622  55.8467  93.1728 0005583 281.2493  78.6679  1.86231065 35557
BEIDOU-3 M14            
1 43623U 18072B   23345.67329037 -.00000013  00000+0  00000+0 0  9993
2 43623  55.8485  93.1702 0002818 310.7749  49.1803  1.86231093 35542
GPS BIII-1              
1 43873U 18109A   23346.57275825  .00000052  00000+0  00000+0 0  9998
2 43873  55.2294 128.4436 0027852 190.5292 132.0358  2.00571850 36665
METEOR-M2 2             
1 44387U 19038A   23347.44008388  .00000015  00000+0  26331-4 0  9995
2 44387  98.8020 311.2017 0002067 115.9206 244.2185 14.23833170230811
GPS BIII-2              
1 44506U 19056A   23346.26774174 -.00000059  00000+0  00000+0 0  9999
2 44506  55.8330   7.5225 0038710 189.8812 170.1446  2.00567728 31657
BEIDOU-3 M23            
1 44542U 19061A   23347.12567243  .00000100  00000+0  00000+0 0  9994
2 44542  54.4670 213.6843 0008836   7.6982 352.4224  1.86231455 28716
BEIDOU-3 M24            
1 44543U 19061B   23346.50247059  .00000102  00000+0  00000+0 0  9998
2 44543  54.4651 213.6748 0005661   4.5386 209.7636  1.86231882 28701
BEIDOU-3 M21            
1 44793U 19078A   23345.89709393 -.00000062  00000+0  00000+0 0  9994
2 44793  54.6964 331.8939 0005920   4.3749 355.6362  1.86232068 27546
BEIDOU-3 M22            
1 44794U 19078B   23347.10130172 -.00000060  00000+0  00000+0 0  9992
2 44794  54.6694 331.8323 0004174 350.7150   9.2804  1.86232489 27571
ELEKTRO-L 3             
1 44903U 19095A   23347.44407147 -.00000071  00000+0  00000+0 0  9991
2 44903   0.0554 212.0652 0000696  29.3877  76.2830  1.00272095 14491
GPS BIII-3              
1 45854U 20041A   23346.28754997 -.00000044  00000+0  00000+0 0  9999
2 45854  55.9650  64.8224 0039540 190.7405 125.5741  2.00560953 25621
COSMOS 2547             
1 46805U 20075A   23346.07129920  .00000088  00000+0  00000+0 0  9999
2 46805  64.6063 223.1881 0005849 238.9540 121.0870  2.13102867 24344
GPS BIII-4              
1 46826U 20078A   23347.13157269  .00000039  00000+0  00000+0 0  9996
2 46826  54.2613 248.0119 0037853 193.9887 348.0506  2.00562452 23114
GSAT0223 (GALILEO 27)   
1 49809U 21116A   23345.39979917 -.00000058  00000+0  00000+0 0  9994
2 49809  57.2876   6.4543 0003562 234.3943 125.6651  1.70476029 12514
GSAT0224 (GALILEO 28)   
1 49810U 21116B   23346.38426543 -.00000057  00000+0  00000+0 0  9997
2 49810  57.2893   6.4260 0002867 237.8417 118.8961  1.70475950 12556
GOES 18                 
1 51850U 22021A   23346.75689687  .00000125  00000+0  00000+0 0  9996
2 51850   0.0491 147.2738 0000341  34.9142  34.5038  1.00270479  6580
